# Colors are mainly derived from B-V and V-R indices, most of which
# come from the MBOSS compilation: http://www.eso.org/~ohainaut/MBOSS/
# and converted using FarGetaNik's color calculator:
# https://docs.google.com/spreadsheets/d/1_mMXYzeYE4JcXJFrn4j5XWJvf2ik13r8v1BZ7G9I4EY/
# Centaur colors are derived from SMASS spectra and converted
# to RGB values using Matt Wronkiewicz's spectrum2rgb utility
# that is distributed with the Celestia source package.

# Orbits for satellites have been taken from Emelyanov & Drozdov (2020), MNRAS 494 (2), 2410
# "Determination of the orbits of 62 moons of asteroids based on astrometric observations."
# with exceptions being listed as comments over this file.
# In cases where the system barycenters have been defined as ReferencePoint's, the
# mass ratios (and thus relative semi-major axes) have been computed from the cube of
# the component sizes, under the assumption of equal densities for both of them.

# Likely dwarf planets

# Braga-Ribas et al. (2013), ApJ 773 (1), 26
# "The Size, Shape, Albedo, Density, and Atmospheric Limit of Transneptunian Object
# (50000) Quaoar from Multi-chord Stellar Occultations"
# https://iopscience.iop.org/article/10.1088/0004-637X/773/1/26
"50000 Quaoar:Quaoar:2002 LM60" "Sol"
{
	Class	"asteroid"
	# Class	"dwarfplanet"
	Texture	"asteroid.*"
	Color	[ 1.000 0.893 0.787 ]
	BlendTexture	true
	Radius	569  # equatorial
	Oblateness	0.0897
	EllipticalOrbit
	{
		Epoch	2458600.5  # 2019 Apr 27
		Period	288.784516916471
		SemiMajorAxis	43.689506100204
		Eccentricity	0.03955774099
		Inclination	7.988143985547
		AscendingNode	188.837473399366
		ArgOfPericenter	146.461981388786
		MeanAnomaly	300.65535440942
	}
	UniformRotation
	{
		Period	8.8394
	}
	LunarLambert	0.5
	Albedo	0.109
	InfoURL	"https://en.wikipedia.org/wiki/50000_Quaoar"
}

"Weywot:50000 Quaoar I:Quaoar I:S-2006 (50000) 1" "Sol/Quaoar"
{
	Class	"minormoon"
	Mesh	"asteroid.cms"
	Texture	"asteroid.*"
	Color	[ 0.5 0.5 0.5 ]  # adjust texture brightness for albedo
	BlendTexture	true
	Radius	85  # JOA 10 (1), 24
	OrbitFrame
	{
		EquatorJ2000	{ Center "Sol/Quaoar" }
	}
	EllipticalOrbit
	{
		Epoch	2453300.5  # 2004 Oct 22
		Period	12.4315
		SemiMajorAxis	13583
		Eccentricity	0.057
		Inclination	36.9
		AscendingNode	357.0
		ArgOfPericenter	10.1
		MeanAnomaly	69.2
	}
	UniformRotation  # to match orbit plane
	{
		Inclination	13.5
		AscendingNode	352.3
	}
	LunarLambert	0.5
	Albedo	0.03  # recalculated for size
	InfoURL	"https://en.wikipedia.org/wiki/Weywot_(moon)"
}

"90377 Sedna:Sedna:2003 VB12" "Sol"
{
	Class	"asteroid"
	# Class	"dwarfplanet"
	Texture	"asteroid.*"
	Color	[ 1.000 0.860 0.692 ]
	BlendTexture	true
	Radius	497.5
	EllipticalOrbit
	{
		Epoch	2459000.5  # 2020 May 31
		Period	10662.6713802939
		SemiMajorAxis	484.438385675118
		Eccentricity	0.842587388666
		Inclination	11.930691895012
		AscendingNode	144.247866905974
		ArgOfPericenter	311.352204298832
		MeanAnomaly	358.116930442029
	}
	UniformRotation
	{
		Period	10.273
	}
	LunarLambert	0.5
	Albedo	0.32
	InfoURL	"https://en.wikipedia.org/wiki/90377_Sedna"
}

# Brown & Butler (2018), AJ 156 (4), 164
# "Medium-sized Satellites of Large Kuiper Belt Objects"
# https://iopscience.iop.org/article/10.3847/1538-3881/aad9f2
# Secondary size from Sickafoose et al. (2019), Icarus 319, 657
# "A stellar occultation by Vanth, a satellite of (90482) Orcus"
# https://arxiv.org/abs/1810.08977
ReferencePoint "Orcus-Vanth" "Sol"
{
	EllipticalOrbit
	{
		Epoch	2458600.5  # 2019 Apr 27
		Period	246.057751828792
		SemiMajorAxis	39.266232423648
		Eccentricity	0.224154696
		Inclination	20.593075065434
		AscendingNode	268.806388631985
		ArgOfPericenter	72.159737740794
		MeanAnomaly	180.346243925382
	}
	# Make the orbit and label visible
	Visible true
	Clickable true
}

"90482 Orcus:Orcus:2004 DW" "Sol"
{
	Class	"asteroid"
	# Class	"dwarfplanet"
	Texture	"asteroid.*"
	Color	[ 0.998 1.000 0.995 ]
	BlendTexture	true
	Radius	455
	OrbitFrame
	{
		EquatorJ2000	{ Center "Sol/Orcus-Vanth" }
	}
	EllipticalOrbit
	{
		Epoch	2454000.0  # 2006 Sept 21 12:00
		Period	9.3072
		SemiMajorAxis	940
		Eccentricity	0.021
		Inclination	100.2
		AscendingNode	87.2
		ArgOfPericenter	305.6
		MeanAnomaly	321.4
	}
	UniformRotation  # to match mutual orbit
	{
		Inclination	98.2
		AscendingNode	83.3
	}
	LunarLambert	0.5
	Albedo	0.23
	InfoURL	"https://en.wikipedia.org/wiki/90482_Orcus"
}

"Vanth:90482 Orcus I:Orcus I:S-2005 (90482) 1" "Sol/Orcus"
{
	Class	"moon"
	Texture	"asteroid.*"
	Color	[ 0.69 0.60 0.51 ]  # reddish; adjusted for albedo
	BlendTexture	true
	Radius	221.25
	OrbitFrame
	{
		EquatorJ2000	{ Center "Sol/Orcus-Vanth" }
	}
	EllipticalOrbit
	{
		Epoch	2454000.0  # 2006 Sept 21 12:00
		Period	9.3072
		SemiMajorAxis	8175
		Eccentricity	0.021
		Inclination	100.2
		AscendingNode	87.2
		ArgOfPericenter	125.6
		MeanAnomaly	321.4
	}
	LunarLambert	0.5
	Albedo	0.08
	InfoURL	"https://en.wikipedia.org/wiki/Vanth_(moon)"
}

# Kiss et al. (2019), Icarus 334, 3
# "The mass and density of the dwarf planet (225088) 2007 OR10"
# https://arxiv.org/abs/1903.05439
# Color indices from Boehnhardt et al. (2014), EMP 114 (1-2), 35
# "Photometry of Transneptunian Objects for the Herschel Key Program 'TNOs are Cool'"
"225088 Gonggong:Gonggong:2007 OR10" "Sol"
{
	Class	"asteroid"
	# Class	"dwarfplanet"
	Texture	"asteroid.*"
	Color	[ 1.000 0.818 0.604 ]
	BlendTexture	true
	Radius	615
	Oblateness	0.03
	EllipticalOrbit
	{
		Epoch	2459000.5  # 2020 May 31
		Period	554.216220202748
		SemiMajorAxis	67.47051418678518
		Eccentricity	0.5004814860780427
		Inclination	30.6568537182735
		AscendingNode	336.8538560791695
		ArgOfPericenter	207.6663020246991
		MeanAnomaly	106.0196839227434
	}
	UniformRotation  # assume coplanarity with satellite orbit
	{
		Period	22.40
		Inclination	63.553
		AscendingNode	35.972
	}
	LunarLambert	0.5
	Albedo	0.14
	InfoURL	"https://en.wikipedia.org/wiki/225088_Gonggong"
}

"Xiangliu:225088 Gonggong I:Gonggong I:S-2010 (225088) 1" "Sol/Gonggong"
{
	Class	"minormoon"
	Mesh	"asteroid.cms"
	Texture	"asteroid.*"
	Radius	50  # dynamical upper limit
	OrbitFrame
	{
		EquatorJ2000	{ Center "Sol/Gonggong" }
	}
	EllipticalOrbit  # prograde solution
	{
		Epoch	2457000.0  # 2014 Dec 08 12:00
		Period	25.22073
		SemiMajorAxis	24021
		Eccentricity	0.2908
		Inclination	83.08
		AscendingNode	31.99
		ArgOfPericenter	77.06
		MeanAnomaly	96.52
	}
	LunarLambert	0.5
	Albedo	0.2
	InfoURL	"https://en.wikipedia.org/wiki/Xiangliu_(moon)"
}

# Centaurs

# Ortiz et al. (2015), A&A 576, A18
# "Possible ring material around centaur (2060) Chiron"
# https://www.aanda.org/articles/aa/abs/2015/04/aa24461-14/aa24461-14.html
"2060 Chiron:Chiron:1977 UB:95P Chiron" "Sol"
{
	Class	"asteroid"
	# Class	"comet"
	Mesh	"roughsphere.cms"
	Texture	"asteroid.*"
	Color	[ 1.000 0.960 0.919 ]
	BlendTexture	true
	Radius	90
	# SemiAxes	[ 100 84 70 ]
	EllipticalOrbit
	{
		Epoch	2457000.5  # 2014 Dec 09
		Period	50.367656524406
		SemiMajorAxis	13.63836664794301
		Eccentricity	0.3820988962489677
		Inclination	6.93836227190589
		AscendingNode	209.2780463186957
		ArgOfPericenter	339.3496505871891
		MeanAnomaly	134.5261255874151
	}
	Rings  # derived from ring radius, component widths and average gap size
	{
		Inner	313
		Outer	335
		Texture	"centaur-rings.*"
	}
	UniformRotation
	{
		Period	5.917813
		Inclination	66
		AscendingNode	234
	}
	LunarLambert	0.5
	Albedo	0.08  # main body
	InfoURL	"https://en.wikipedia.org/wiki/2060_Chiron"
}

# Leiva et al. (2017), AJ 154 (4), 159
# "Size and Shape of Chariklo from Multi-epoch Stellar Occultations"
# https://iopscience.iop.org/article/10.3847/1538-3881/aa8956
"10199 Chariklo:Chariklo:1997 CU26" "Sol"
{
	Class	"asteroid"
	Mesh	"roughsphere.cms"
	Texture	"asteroid.*"
	Color	[ 1.000 0.903 0.786 ]
	BlendTexture	true
	Radius	143  # equatorial
	Oblateness	0.329  # Maclaurin model used, to avoid issues with rings
	EllipticalOrbit
	{
		Epoch	2458000.5  # 2017 Sept 04
		Period	62.934615411961
		SemiMajorAxis	15.821740368798
		Eccentricity	0.172090627773
		Inclination	23.382362400587
		AscendingNode	300.416187483083
		ArgOfPericenter	242.895770634609
		MeanAnomaly	77.670023037241
	}
	Rings  # derived from ring radii and average widths by Braga-Ribas et al. (2014)
	{
		Inner	387.3
		Outer	406.5
		Texture	"centaur-rings.*"
	}
	BodyFrame	{ EquatorJ2000 { } }
	UniformRotation
	{
		Period	7.004
		Inclination	48.52
		AscendingNode	241.3
	}
	LunarLambert	0.5
	Albedo	0.038  # main body
	InfoURL	"https://en.wikipedia.org/wiki/10199_Chariklo"
}

# Edgeworth-Kuiper belt objects

"15760 Albion:Albion:1992 QB1" "Sol"
{
	Class	"asteroid"
	Mesh	"asteroid.cms"
	Texture	"asteroid.*"
	Color	[ 1.000 0.872 0.798 ]
	BlendTexture	true
	Radius	54
	EllipticalOrbit
	{
		Epoch	2458200.5  # 2018 Mar 23
		Period	288.991711307239
		SemiMajorAxis	43.710400891912
		Eccentricity	0.06597077878
		Inclination	2.186162143948
		AscendingNode	359.407421030794
		ArgOfPericenter	0.155188951253
		MeanAnomaly	32.083132101851
	}
	UniformRotation
	{
		Period	6  # guess
	}
	LunarLambert	0.5
	Albedo	0.2  # assumed
	InfoURL	"https://en.wikipedia.org/wiki/15760_Albion"
}

